{"type": "FeatureCollection", "features": [ {"type": "Feature", "properties": {"norad_id": 34141, "name": "COSMOS 2251 DEB", "group": "cosmos-2251-debris", "lat": 53.43037002949275, "lon": 175.69266339523975, "alt_km": 691.3826138508957, "timestamp": "2025-12-18T07:01:54.983348+00:00", "meta": {"OBJECT_NAME": "COSMOS 2251 DEB", "OBJECT_ID": "1993-036LN", "EPOCH": "2025-12-17T12:47:58.814304", "MEAN_MOTION": 14.49290674, "ECCENTRICITY": 0.00467848, "INCLINATION": 74.0112, "RA_OF_ASC_NODE": 19.856, "ARG_OF_PERICENTER": 104.499, "MEAN_ANOMALY": 16.6128, "EPHEMERIS_TYPE": 0, "CLASSIFICATION_TYPE": "U", "NORAD_CAT_ID": 34141, "ELEMENT_SET_NO": 999, "REV_AT_EPOCH": 87763, "BSTAR": 0.0010448559, "MEAN_MOTION_DOT": 4.017e-05, "MEAN_MOTION_DDOT": 0}, "tle": {"line1": "1 34141U 93036LN  25351.53331961  .00004017  00000+0  10449-2 0  9992", "line2": "2 34141  74.0112  19.8560 0046784 104.4990  16.6128 14.49290674877636"}}, "geometry": {"type": "Point", "coordinates": [175.69266339523975, 53.43037002949275]}}, {"type": "Feature", "properties": {"norad_id": 34270, "name": "COSMOS 2251 DEB", "group": "cosmos-2251-debris", "lat": 35.355431783366825, "lon": -52.337445102127795, "alt_km": 651.8907868366459, "timestamp": "2025-12-18T07:01:54.983359+00:00", "meta": {"OBJECT_NAME": "COSMOS 2251 DEB", "OBJECT_ID": "1993-036LQ", "EPOCH": "2025-12-17T21:01:55.925472", "MEAN_MOTION": 14.65209763, "ECCENTRICITY": 0.00478097, "INCLINATION": 74.0116, "RA_OF_ASC_NODE": 296.7279, "ARG_OF_PERICENTER": 88.0063, "MEAN_ANOMALY": 272.6579, "EPHEMERIS_TYPE": 0, "CLASSIFICATION_TYPE": "U", "NORAD_CAT_ID": 34270, "ELEMENT_SET_NO": 999, "REV_AT_EPOCH": 89171, "BSTAR": 0.00057480829, "MEAN_MOTION_DOT": 3.117e-05, "MEAN_MOTION_DDOT": 0}, "tle": {"line1": "1 34270U 93036LQ  25351.87634173  .00003117  00000+0  57481-3 0  9991", "line2": "2 34270  74.0116 296.7279 0047809  88.0063 272.6579 14.65209763891719"}}, "geometry": {"type": "Point", "coordinates": [-52.337445102127795, 35.355431783366825]}}, {"type": "Feature", "properties": {"norad_id": 34271, "name": "COSMOS 2251 DEB", "group": "cosmos-2251-debris", "lat": 73.0065681565131, "lon": -61.13362744451467, "alt_km": 661.7884629459586, "timestamp": "2025-12-18T07:01:54.983369+00:00", "meta": {"OBJECT_NAME": "COSMOS 2251 DEB", "OBJECT_ID": "1993-036LR", "EPOCH": "2025-12-17T14:31:51.472704", "MEAN_MOTION": 14.70863334, "ECCENTRICITY": 0.00186002, "INCLINATION": 74.0194, "RA_OF_ASC_NODE": 189.873, "ARG_OF_PERICENTER": 243.5419, "MEAN_ANOMALY": 173.2873, "EPHEMERIS_TYPE": 0, "CLASSIFICATION_TYPE": "U", "NORAD_CAT_ID": 34271, "ELEMENT_SET_NO": 999, "REV_AT_EPOCH": 88306, "BSTAR": 0.0013680399, "MEAN_MOTION_DOT": 8.368e-05, "MEAN_MOTION_DDOT": 0}, "tle": {"line1": "1 34271U 93036LR  25351.60545686  .00008368  00000+0  13680-2 0  9998", "line2": "2 34271  74.0194 189.8730 0018600 243.5419 173.2873 14.70863334883068"}}, "geometry": {"type": "Point", "coordinates": [-61.13362744451467, 73.0065681565131]}}, {"type": "Feature", "properties": {"norad_id": 34273, "name": "COSMOS 2251 DEB", "group": "cosmos-2251-debris", "lat": -68.58696661449788, "lon": 29.930079102427978, "alt_km": 694.5782644918518, "timestamp": "2025-12-18T07:01:54.983379+00:00", "meta": {"OBJECT_NAME": "COSMOS 2251 DEB", "OBJECT_ID": "1993-036LT", "EPOCH": "2025-12-17T17:17:58.073856", "MEAN_MOTION": 14.61271749, "ECCENTRICITY": 0.00138531, "INCLINATION": 74.0365, "RA_OF_ASC_NODE": 77.9036, "ARG_OF_PERICENTER": 203.8186, "MEAN_ANOMALY": 311.7104, "EPHEMERIS_TYPE": 0, "CLASSIFICATION_TYPE": "U", "NORAD_CAT_ID": 34273, "ELEMENT_SET_NO": 999, "REV_AT_EPOCH": 88694, "BSTAR": 0.00069920803, "MEAN_MOTION_DOT": 3.426e-05, "MEAN_MOTION_DDOT": 0}, "tle": {"line1": "1 34273U 93036LT  25351.72081104  .00003426  00000+0  69921-3 0  9993", "line2": "2 34273  74.0365  77.9036 0013853 203.8186 311.7104 14.61271749886940"}}, "geometry": {"type": "Point", "coordinates": [29.930079102427978, -68.58696661449788]}}, {"type": "Feature", "properties": {"norad_id": 34274, "name": "COSMOS 2251 DEB", "group": "cosmos-2251-debris", "lat": 69.82032459545258, "lon": 109.17318683947242, "alt_km": 680.2958200517078, "timestamp": "2025-12-18T07:01:54.983389+00:00", "meta": {"OBJECT_NAME": "COSMOS 2251 DEB", "OBJECT_ID": "1993-036LU", "EPOCH": "2025-12-17T15:01:21.772416", "MEAN_MOTION": 14.6484124, "ECCENTRICITY": 0.00217906, "INCLINATION": 74.0048, "RA_OF_ASC_NODE": 59.1536, "ARG_OF_PERICENTER": 208.9623, "MEAN_ANOMALY": 312.5935, "EPHEMERIS_TYPE": 0, "CLASSIFICATION_TYPE": "U", "NORAD_CAT_ID": 34274, "ELEMENT_SET_NO": 999, "REV_AT_EPOCH": 88747, "BSTAR": 0.00083716258, "MEAN_MOTION_DOT": 4.457e-05, "MEAN_MOTION_DDOT": 0}, "tle": {"line1": "1 34274U 93036LU  25351.62594644  .00004457  00000+0  83716-3 0  9994", "line2": "2 34274  74.0048  59.1536 0021790 208.9623 312.5935 14.64841240887479"}}, "geometry": {"type": "Point", "coordinates": [109.17318683947242, 69.82032459545258]}}, {"type": "Feature", "properties": {"norad_id": 34276, "name": "COSMOS 2251 DEB", "group": "cosmos-2251-debris", "lat": -42.112013111955264, "lon": -90.22824124970174, "alt_km": 692.4035411922305, "timestamp": "2025-12-18T07:01:54.983400+00:00", "meta": {"OBJECT_NAME": "COSMOS 2251 DEB", "OBJECT_ID": "1993-036LW", "EPOCH": "2025-12-17T11:57:08.972064", "MEAN_MOTION": 14.57261051, "ECCENTRICITY": 0.00224512, "INCLINATION": 74.0244, "RA_OF_ASC_NODE": 76.2743, "ARG_OF_PERICENTER": 222.6135, "MEAN_ANOMALY": 152.6566, "EPHEMERIS_TYPE": 0, "CLASSIFICATION_TYPE": "U", "NORAD_CAT_ID": 34276, "ELEMENT_SET_NO": 999, "REV_AT_EPOCH": 88662, "BSTAR": 0.00057189338, "MEAN_MOTION_DOT": 2.566e-05, "MEAN_MOTION_DDOT": 0}, "tle": {"line1": "1 34276U 93036LW  25351.49802051  .00002566  00000+0  57189-3 0  9999", "line2": "2 34276  74.0244  76.2743 0022451 222.6135 152.6566 14.57261051886622"}}, "geometry": {"type": "Point", "coordinates": [-90.22824124970174, -42.112013111955264]}}, {"type": "Feature", "properties": {"norad_id": 34297, "name": "COSMOS 2251 DEB", "group": "cosmos-2251-debris", "lat": -4.358652490616153, "lon": 95.28464307168157, "alt_km": 784.3292183477406, "timestamp": "2025-12-18T07:01:54.983410+00:00", "meta": {"OBJECT_NAME": "COSMOS 2251 DEB", "OBJECT_ID": "1993-036MT", "EPOCH": "2025-12-17T22:10:20.317728", "MEAN_MOTION": 14.36633767, "ECCENTRICITY": 0.00174863, "INCLINATION": 74.0488, "RA_OF_ASC_NODE": 274.7131, "ARG_OF_PERICENTER": 342.4309, "MEAN_ANOMALY": 93.6271, "EPHEMERIS_TYPE": 0, "CLASSIFICATION_TYPE": "U", "NORAD_CAT_ID": 34297, "ELEMENT_SET_NO": 999, "REV_AT_EPOCH": 88139, "BSTAR": 0.0001113071, "MEAN_MOTION_DOT": 3.02e-06, "MEAN_MOTION_DDOT": 0}, "tle": {"line1": "1 34297U 93036MT  25351.92384627  .00000302  00000+0  11131-3 0  9997", "line2": "2 34297  74.0488 274.7131 0017486 342.4309  93.6271 14.36633767881397"}}, "geometry": {"type": "Point", "coordinates": [95.28464307168157, -4.358652490616153]}}, {"type": "Feature", "properties": {"norad_id": 34299, "name": "COSMOS 2251 DEB", "group": "cosmos-2251-debris", "lat": 38.708595440544954, "lon": -24.911831270344432, "alt_km": 303.04881672206557, "timestamp": "2025-12-18T07:01:54.983421+00:00", "meta": {"OBJECT_NAME": "COSMOS 2251 DEB", "OBJECT_ID": "1993-036MV", "EPOCH": "2025-12-17T08:07:38.080416", "MEAN_MOTION": 15.82960977, "ECCENTRICITY": 0.00144906, "INCLINATION": 73.9725, "RA_OF_ASC_NODE": 323.979, "ARG_OF_PERICENTER": 70.2122, "MEAN_ANOMALY": 290.0669, "EPHEMERIS_TYPE": 0, "CLASSIFICATION_TYPE": "U", "NORAD_CAT_ID": 34299, "ELEMENT_SET_NO": 999, "REV_AT_EPOCH": 89083, "BSTAR": 0.0059662188, "MEAN_MOTION_DOT": 0.01432796, "MEAN_MOTION_DDOT": 0}, "tle": {"line1": "1 34299U 93036MV  25351.33863519  .01432796  00000+0  59662-2 0  9993", "line2": "2 34299  73.9725 323.9790 0014490  70.2122 290.0669 15.82960977890831"}}, "geometry": {"type": "Point", "coordinates": [-24.911831270344432, 38.708595440544954]}}, {"type": "Feature", "properties": {"norad_id": 34301, "name": "COSMOS 2251 DEB", "group": "cosmos-2251-debris", "lat": 10.007495360242675, "lon": 158.56380462423738, "alt_km": 622.2740511202919, "timestamp": "2025-12-18T07:01:54.983432+00:00", "meta": {"OBJECT_NAME": "COSMOS 2251 DEB", "OBJECT_ID": "1993-036MX", "EPOCH": "2025-12-17T21:57:47.164608", "MEAN_MOTION": 14.8479356, "ECCENTRICITY": 0.00109064, "INCLINATION": 74.0041, "RA_OF_ASC_NODE": 156.4133, "ARG_OF_PERICENTER": 217.9886, "MEAN_ANOMALY": 293.5184, "EPHEMERIS_TYPE": 0, "CLASSIFICATION_TYPE": "U", "NORAD_CAT_ID": 34301, "ELEMENT_SET_NO": 999, "REV_AT_EPOCH": 88477, "BSTAR": 0.002426637, "MEAN_MOTION_DOT": 0.00020647, "MEAN_MOTION_DDOT": 0}, "tle": {"line1": "1 34301U 93036MX  25351.91512922  .00020647  00000+0  24266-2 0  9999", "line2": "2 34301  74.0041 156.4133 0010906 217.9886 293.5184 14.84793560884772"}}, "geometry": {"type": "Point", "coordinates": [158.56380462423738, 10.007495360242675]}}, {"type": "Feature", "properties": {"norad_id": 34302, "name": "COSMOS 2251 DEB", "group": "cosmos-2251-debris", "lat": -73.96690688077264, "lon": 32.756561109122885, "alt_km": 734.5460920733558, "timestamp": "2025-12-18T07:01:54.983443+00:00", "meta": {"OBJECT_NAME": "COSMOS 2251 DEB", "OBJECT_ID": "1993-036MY", "EPOCH": "2025-12-17T18:47:11.538816", "MEAN_MOTION": 14.39350075, "ECCENTRICITY": 0.00790758, "INCLINATION": 74.1784, "RA_OF_ASC_NODE": 114.352, "ARG_OF_PERICENTER": 328.1679, "MEAN_ANOMALY": 182.4051, "EPHEMERIS_TYPE": 0, "CLASSIFICATION_TYPE": "U", "NORAD_CAT_ID": 34302, "ELEMENT_SET_NO": 999, "REV_AT_EPOCH": 87793, "BSTAR": 0.00046268347, "MEAN_MOTION_DOT": 1.465e-05, "MEAN_MOTION_DDOT": 0}, "tle": {"line1": "1 34302U 93036MY  25351.78277244  .00001465  00000+0  46268-3 0  9994", "line2": "2 34302  74.1784 114.3520 0079075 328.1679 182.4051 14.39350075877937"}}, "geometry": {"type": "Point", "coordinates": [32.756561109122885, -73.96690688077264]}}]}